FLOCK 1C-3              
1 40041U 14033AH  18011.99114918  .00000981  00000-0  11026-3 0  9994
2 40041  97.9237 289.5520 0012899 331.9345  28.1198 14.88989447193550
POLYITAN-1              
1 40042U 14033AJ  18011.75953849  .00000355  00000-0  44519-4 0  9992
2 40042  97.9167 287.5108 0014225 333.4303  26.6182 14.88278920193440
TIGRISAT                
1 40043U 14033AK  18012.18583761  .00000139  00000-0  28202-4 0  9994
2 40043  97.8304 254.9809 0059806 342.7901  17.1279 14.74083830191629
LEMUR-1                 
1 40044U 14033AL  18011.85233648  .00000153  00000-0  30396-4 0  9997
2 40044  97.8300 254.3408 0059013 345.2004  14.7475 14.73911283191157
AEROCUBE 6A             
1 40045U 14033AM  18012.22371529  .00000370  00000-0  61144-4 0  9997
2 40045  97.8448 256.7824 0057968 337.4602  22.4062 14.75036943191536
AEROCUBE 6B             
1 40046U 14033AN  18011.68125939  .00000355  00000-0  59077-4 0  9994
2 40046  97.8430 256.1606 0056994 338.7216  21.1624 14.75027121191597
UKUBE-1                 
1 40074U 14037F   18012.23622383  .00000278  00000-0  40769-4 0  9998
2 40074  98.3670 141.8486 0005887  95.4614 264.7247 14.83697014190172
BRITE-PL 2              
1 40119U 14049B   18012.21097492  .00000123  00000-0  21106-4 0  9999
2 40119  97.9265 101.9160 0018715 125.0002 235.2972 14.84239791184163
FIREBIRD 4              
1 40378U 15003C   18012.56797975  .00001716  00000-0  74499-4 0  9990
2 40378  99.1060 243.4144 0133766  28.1824 332.6559 15.16583163162733
GRIFEX                  
1 40379U 15003D   18012.51233860  .00001209  00000-0  57231-4 0  9996
2 40379  99.1095 240.2213 0140415  38.6684 322.4495 15.13858852162545
EXOCUBE                 
1 40380U 15003E   18012.51785453  .00000853  00000-0  43368-4 0  9998
2 40380  99.1145 238.4977 0144647  44.3448 316.9256 15.12162511162421
DEORBITSAIL             
1 40719U 15032E   18011.89586806  .00000380  00000-0  62165-4 0  9998
2 40719  97.9613 267.8057 0016039 187.3119 172.7859 14.76301722135115
TIANWANG 1C (TW-1C)     
1 40926U 15051B   18012.40176623  .00006887  00000-0  13984-3 0  9991
2 40926  97.2048  55.5655 0012121 121.9176   3.7593 15.46584123129219
TIANWANG 1B (TW-1B)     
1 40927U 15051C   18012.49281968  .00006719  00000-0  14203-3 0  9999
2 40927  97.2140  55.5745 0011732 131.7302 336.2146 15.45415213129153
TIANWANG 1A (TW-1A)     
1 40928U 15051D   18011.82157089  .00002757  00000-0  76319-4 0  9997
2 40928  97.2044  48.8283 0012504 157.8418 288.8738 15.37764921128741
LEMUR-2-JOEL            
1 40932U 15052C   18005.05034218  .00001043  00000-0  53969-4 0  9992
2 40932   6.0099 226.4616 0014640 240.2561 134.6642 14.77609559122910
LEMUR-2-CHRIS           
1 40933U 15052D   18006.98719622  .00000547  00000-0 -13558-4 0  9994
2 40933   6.0038 211.2288 0013693 273.1065  86.7607 14.77762957123216
LEMUR-2-JEROEN          
1 40934U 15052E   18006.10294006 -.00000314  00000-0 -13178-3 0  9993
2 40934   6.0000 223.9855 0011424 242.7840 117.0085 14.77099280122982
LEMUR-2-PETER           
1 40935U 15052F   18007.03243701  .00000398  00000-0 -33394-4 0  9997
2 40935   6.0006 219.4976 0010389 256.3104 103.5874 14.76881266123121
EXACTVIEW 9             
1 40936U 15052G   18010.61690976  .00000823  00000-0  25470-4 0  9994
2 40936   6.0195 196.9358 0017357 267.0827  93.0230 14.76340099123647
ATHENOXAT 1             
1 41168U 15077C   18012.39880589  .00001856  00000-0  65735-4 0  9992
2 41168  14.9866  80.1765 0012152  37.7145  52.1270 15.12372130114751
GALASSIA                
1 41170U 15077E   18012.23878937  .00001770  00000-0  59985-4 0  9997
2 41170  14.9895  76.6095 0013361  55.6713 304.4870 15.12788932114777
VELOX 2                 
1 41171U 15077F   18012.40189345  .00001477  00000-0  48120-4 0  9998
2 41171  14.9917  92.8668 0009139   4.9691 355.0719 15.10391119114644
AGGIESAT 4              
1 41313U 98067HP  18012.22508733  .00096394  14928-4  23756-3 0  9999
2 41313  51.6330 356.3790 0001598  85.2966 274.8225 15.95951473112029
HORYU-IV                
1 41340U 16012D   18011.90382811  .00000437  00000-0  26824-4 0  9995
2 41340  31.0039 221.3280 0014188 342.5838  17.4310 15.00857020104394
OUFTI-1                 
1 41458U 16025C   18011.86689837  .00001500  00000-0  83385-4 0  9999
2 41458  98.1594  66.2354 0169793 312.0361  46.6495 15.04145910 93946
E-ST@R-II               
1 41459U 16025D   18011.71487223  .00000587  00000-0  35769-4 0  9996
2 41459  98.1578  65.9728 0170708 313.0414  45.6602 15.03911376 93909
AAUSAT 4                
1 41460U 16025E   18012.49693446  .00001865  00000-0  10194-3 0  9994
2 41460  98.1518  67.0798 0163010 307.3173  51.3310 15.05149232 94065
DIWATA-1                
1 41463U 98067HT  18012.49597416  .00008470  00000-0  83306-4 0  9998
2 41463  51.6401  45.6711 0000300 148.8166   0.9308 15.66950821 97568
FLOCK 2E'-1             
1 41479U 98067HZ  18012.21523016  .00044881  00000-0  18796-3 0  9996
2 41479  51.6322  20.4623 0002271  24.9098 335.2015 15.85116042 94811
FLOCK 2E'-3             
1 41480U 98067JA  18012.20017388  .00038109  00000-0  17392-3 0  9994
2 41480  51.6257  21.0798 0001744  20.0061 340.1010 15.83383565 94792
FLOCK 2E-1              
1 41483U 98067JD  18011.43283905  .00023340  00000-0  13266-3 0  9998
2 41483  51.6348  29.6468 0001338  29.3881 330.7195 15.78885932 94478
FLOCK 2E-2              
1 41484U 98067JE  18012.45692241  .00408009  85687-4  64283-3 0  9991
2 41484  51.6261  14.5611 0006832  83.8154 276.3636 16.03275803 94764
FLOCK 2E-3              
1 41486U 98067JG  18012.20320165  .00037811  00000-0  18934-3 0  9992
2 41486  51.6302  25.7189 0001531  61.3698 298.7458 15.81393226 94610
FLOCK 2E-4              
1 41487U 98067JH  18012.40841068  .00110836  00000-0  45953-3 0  9995
2 41487  51.6289  23.3227 0004504  80.7310 279.4203 15.84953784 94664
FLOCK 2E-6              
1 41563U 98067JM  18011.53315353  .00138862  18342-4  41881-3 0  9993
2 41563  51.6299  29.4465 0005024  33.0286 327.1033 15.91928283 92576
FLOCK 2E-5              
1 41564U 98067JN  18011.59345191  .00018131  00000-0  12078-3 0  9993
2 41564  51.6302  34.4517 0001776 323.1372  36.9505 15.75471364 92502
FLOCK 2E-7              
1 41565U 98067JP  18012.42250542  .00039996  00000-0  17309-3 0  9996
2 41565  51.6269  18.0332 0000428 279.3769  80.7186 15.84483258 92690
FLOCK 2E'-5             
1 41567U 98067JR  18012.49184306  .00015663  00000-0  11152-3 0  9994
2 41567  51.6338  33.0103 0002489 224.4043 135.6756 15.74050578 92470
FLOCK 2E'-6             
1 41568U 98067JS  18011.58384235  .00026817  00000-0  15103-3 0  9990
2 41568  51.6291  30.5522 0000956 240.7271 119.3634 15.78999021 92458
FLOCK 2E'-8             
1 41569U 98067JT  18011.50117706  .00042294  00000-0  17321-3 0  9991
2 41569  51.6306  21.6630 0001493  42.6115 317.5005 15.85610270 92447
FLOCK 2E-10             
1 41572U 98067JW  18012.20990756  .00137404  00000-0  55371-3 0  9992
2 41572  51.6324  21.2297 0001010 107.1255 252.9859 15.85466278 92494
FLOCK 2E-12             
1 41573U 98067JX  18012.19471475  .00050018  00000-0  19459-3 0  9995
2 41573  51.6297  18.0391 0000792 350.9636   9.1354 15.86596253 92535
FLOCK 2E-11             
1 41574U 98067JY  18012.45551349  .00041610  00000-0  16839-3 0  9991
2 41574  51.6231  15.9029 0001125 300.6442  59.4451 15.85865000 92585
FLOCK 2E'-9             
1 41575U 98067JZ  18012.19796652  .00094575  14516-4  28916-3 0  9999
2 41575  51.6262  12.6284 0002187   8.6488 351.4556 15.91904413 92592
FLOCK 2E'-10            
1 41576U 98067KA  18012.44726802  .00150954  00000-0  47328-3 0  9999
2 41576  51.6289  15.2369 0000608 352.1913   7.9083 15.90489039 92488
FLOCK 2E'-11            
1 41577U 98067KB  18012.48487052  .00040002  00000-0  17389-3 0  9991
2 41577  51.6325  18.5794 0000376 261.1832  98.9129 15.84389619 92262
FLOCK 2E'-12            
1 41578U 98067KC  18012.45452860  .00095482  14725-4  26095-3 0  9997
2 41578  51.6218  12.0751 0002157  66.6221 293.5013 15.94033605 92341
FLOCK 2P-6              
1 41606U 16040H   18011.91270295  .00002027  00000-0  87070-4 0  9991
2 41606  97.4348  77.8822 0011866  67.4677 292.7815 15.23790133 86470
FLOCK 2P-11             
1 41608U 16040K   18011.92012060  .00002298  00000-0  98579-4 0  9994
2 41608  97.4347  77.8437 0011978  67.4304 292.8199 15.23692915 86413
FLOCK 2P-2              
1 41609U 16040L   18011.73579836  .00001160  00000-0  51092-4 0  9999
2 41609  97.4349  77.6667 0011845  67.6993 292.5499 15.23793537 86364
FLOCK 2P-9              
1 41610U 16040M   18011.94503999  .00001210  00000-0  53183-4 0  9990
2 41610  97.4346  77.8252 0012127  67.0836 293.1680 15.23776950 86278
FLOCK 2P-4              
1 41611U 16040N   18011.90870575  .00001200  00000-0  52766-4 0  9999
2 41611  97.4373  78.0599 0012243  75.3645 284.8948 15.23772120 86432
FLOCK 2P-10             
1 41612U 16040P   18012.21341758  .00001441  00000-0  62748-4 0  9999
2 41612  97.4378  78.4528 0012100  74.2197 286.0374 15.23785235 86489
FLOCK 2P-8              
1 41613U 16040Q   18012.16570957  .00001139  00000-0  50261-4 0  9990
2 41613  97.4372  78.3338 0012195  73.8377 286.4201 15.23768347 86478
FLOCK 2P-12             
1 41614U 16040R   18011.86331147  .00001218  00000-0  53529-4 0  9991
2 41614  97.4384  78.2000 0011955  75.1003 285.1557 15.23763658 86437
FLOCK 2P-7              
1 41615U 16040S   18012.16071782  .00000833  00000-0  37727-4 0  9996
2 41615  97.4371  78.3209 0012286  74.7054 285.5540 15.23618858 86476
FLOCK 2P-5              
1 41616U 16040T   18012.13710089  .00001454  00000-0  63371-4 0  9998
2 41616  97.4384  78.4453 0011918  73.8300 286.4248 15.23752325 86459
FLOCK 2P-1              
1 41617U 16040U   18011.72914556  .00002263  00000-0  96906-4 0  9997
2 41617  97.4390  78.0795 0011980  75.4974 284.7591 15.23772122 86411
